NORAD_CAT_ID,OBJECT_NAME,OBJECT_TYPE,EPOCH,MEAN_MOTION,ECCENTRICITY,INCLINATION,RA_OF_ASC_NODE,ARG_OF_PERICENTER,MEAN_ANOMALY,BSTAR,MEAN_MOTION_DOT,MEAN_MOTION_DDOT,TLE_LINE0,TLE_LINE1,TLE_LINE2,SEMIMAJOR_AXIS,PERIOD,APOGEE,PERIGEE,DECAYED
49727.0,STARLINK-3242,PAYLOAD,2022-05-01 14:00:01,15.08825318,0.0001708,53.2181,0.3621,47.7501,52.9543,0.0011213,0.00017595,0.0,0 STARLINK-3242,1 49727U 21115D   22121.58334491  .00017595  00000-0  11213-2 0  9991,2 49727  53.2181   0.3621 0001708  47.7501  52.9543 15.08825318  3588,6917.925,95.438,540.972,538.609,0.0
49727.0,STARLINK-3242,PAYLOAD,2022-05-01 22:00:01,15.08835243,0.0001878,53.2179,358.8675,44.06800000000001,68.2829,-0.00041416,-6.873e-05,0.0,0 STARLINK-3242,1 49727U 21115D   22121.91668981 -.00006873  00000-0 -41416-3 0  9990,2 49727  53.2179 358.8675 0001878  44.0680  68.2829 15.08835243  3575,6917.895,95.438,541.059,538.461,0.0
49727.0,STARLINK-3242,PAYLOAD,2022-05-02 14:00:01,15.08805077,0.0001822,53.2175,355.8732,51.6317,83.8352,0.0028617,0.00045507,0.0,0 STARLINK-3242,1 49727U 21115D   22122.58334491  .00045507  00000-0  28617-2 0  9992,2 49727  53.2175 355.8732 0001822  51.6317  83.8352 15.08805077 24087,6917.986999999999,95.44,541.113,538.592,0.0
49727.0,STARLINK-3242,PAYLOAD,2022-05-02 22:00:01,15.08832034,0.0001996,53.2174,354.3786,47.8533,99.2485,-0.00023786,-4.071e-05,0.0,0 STARLINK-3242,1 49727U 21115D   22122.91668981 -.00004071  00000-0 -23786-3 0  9999,2 49727  53.2174 354.3786 0001996  47.8533  99.2485 15.08832034  3615,6917.905,95.438,541.151,538.389,0.0
49727.0,STARLINK-3242,PAYLOAD,2022-05-03 04:00:00,15.08830725,0.000202,53.217,353.2564,44.8568,20.8686,0.0014711,0.00023196,0.0,0 STARLINK-3242,1 49727U 21115D   22123.16667824  .00023196  00000-0  14711-2 0  9996,2 49727  53.2170 353.2564 0002020  44.8568  20.8686 15.08830725 24168,6917.909000000002,95.438,541.1709999999998,538.376,0.0
49727.0,STARLINK-3242,PAYLOAD,2022-05-03 14:00:01,15.08837042,0.0001882,53.2172,351.3841,52.6083,117.6117,0.0020389,0.00032308,0.0,0 STARLINK-3242,1 49727U 21115D   22123.58334491  .00032308  00000-0  20389-2 0  9996,2 49727  53.2172 351.3841 0001882  52.6083 117.6117 15.08837042  3565,6917.889,95.438,541.056,538.452,0.0
49727.0,STARLINK-3242,PAYLOAD,2022-05-03 22:00:00,15.08852606,0.0002016,53.217,349.8893,46.9712,134.8598,-0.0018292,-0.00029293,0.0,0 STARLINK-3242,1 49727U 21115D   22123.91667824 -.00029293  00000-0 -18292-2 0  9993,2 49727  53.2170 349.8893 0002016  46.9712 134.8598 15.08852606 24286,6917.842,95.437,541.101,538.312,0.0
49727.0,STARLINK-3242,PAYLOAD,2022-05-04 12:00:00,15.08839297,0.0001887,53.2171,347.2687,50.0659,62.0696,0.0010402,0.00016305,0.0,0 STARLINK-3242,1 49727U 21115D   22124.50001157  .00016305  00000-0  10402-2 0  9993,2 49727  53.2171 347.2687 0001887  50.0659  62.0696 15.08839297 24362,6917.8830000000025,95.438,541.053,538.442,0.0
49727.0,STARLINK-3242,PAYLOAD,2022-05-04 14:00:01,15.08852338,0.0001921,53.2172,346.8946,52.3977,152.6337,-0.00042949,-7.119e-05,0.0,0 STARLINK-3242,1 49727U 21115D   22124.58334491 -.00007119  00000-0 -42949-3 0  9998,2 49727  53.2172 346.8946 0001921  52.3977 152.6337 15.08852338  3606,6917.843000000003,95.437,541.0369999999998,538.379,0.0
49727.0,STARLINK-3242,PAYLOAD,2022-05-04 22:00:01,15.08833136,0.0002159,53.2173,345.3999,48.5494,168.1546,0.00074207,0.0001154,0.0,0 STARLINK-3242,1 49727U 21115D   22124.91668981  .00011540  00000-0  74207-3 0  9992,2 49727  53.2173 345.3999 0002159  48.5494 168.1546 15.08833136  3603,6917.901,95.438,541.26,538.273,0.0
49727.0,STARLINK-3242,PAYLOAD,2022-05-05 06:00:00,15.08872841,0.0002059,53.2173,343.9028,47.5168,180.7069,-0.0042222,-0.00066923,0.0,0 STARLINK-3242,1 49727U 21115D   22125.25001157 -.00066923  00000-0 -42222-2 0  9994,2 49727  53.2173 343.9028 0002059  47.5168 180.7069 15.08872841 24481,6917.78,95.435,541.069,538.221,0.0
49727.0,STARLINK-3242,PAYLOAD,2022-05-05 14:00:01,15.08822566,0.0001965,53.2177,342.4054,51.9705,187.8604,0.0021883,0.00034694,0.0,0 STARLINK-3242,1 49727U 21115D   22125.58334491  .00034694  00000-0  21883-2 0  9998,2 49727  53.2177 342.4054 0001965  51.9705 187.8604 15.08822566  3567,6917.934,95.439,541.158,538.439,0.0
49727.0,STARLINK-3242,PAYLOAD,2022-05-05 22:00:00,15.088336600000002,0.0002157,53.2177,340.9107,46.9396,204.4825,0.00086165,0.00013449,0.0,0 STARLINK-3242,1 49727U 21115D   22125.91667824  .00013449  00000-0  86165-3 0  9994,2 49727  53.2177 340.9107 0002157  46.9396 204.4825 15.08833660 24586,6917.9,95.438,541.257,538.273,0.0
49727.0,STARLINK-3242,PAYLOAD,2022-05-06 14:00:01,15.08826021,0.000192,53.2182,337.9162,50.8836,223.7268,0.0018402,0.00029109,0.0,0 STARLINK-3242,1 49727U 21115D   22126.58334491  .00029109  00000-0  18402-2 0  9997,2 49727  53.2182 337.9162 0001920  50.8836 223.7268 15.08826021  3607,6917.9230000000025,95.438,541.116,538.46,0.0
49727.0,STARLINK-3242,PAYLOAD,2022-05-06 22:00:00,15.0883464,0.0002103,53.2182,336.4217,45.6018,240.5997,0.00059386,9.174e-05,0.0,0 STARLINK-3242,1 49727U 21115D   22126.91667824  .00009174  00000-0  59386-3 0  9990,2 49727  53.2182 336.4217 0002103  45.6018 240.5997 15.08834640 24739,6917.897,95.438,541.217,538.307,0.0
49727.0,STARLINK-3242,PAYLOAD,2022-05-07 14:00:01,15.08826705,0.0001843,53.2185,333.4273,49.8583,259.5203,0.001418,0.00022343,0.0,0 STARLINK-3242,1 49727U 21115D   22127.58334491  .00022343  00000-0  14180-2 0  9990,2 49727  53.2185 333.4273 0001843  49.8583 259.5203 15.08826705  3600,6917.920999999999,95.438,541.061,538.511,0.0
49727.0,STARLINK-3242,PAYLOAD,2022-05-07 22:00:00,15.08827161,0.0002049,53.2185,331.9328,44.7926,276.1782,0.0013583,0.00021388,0.0,0 STARLINK-3242,1 49727U 21115D   22127.91667824  .00021388  00000-0  13583-2 0  9990,2 49727  53.2185 331.9328 0002049  44.7926 276.1782 15.08827161 24885,6917.92,95.438,541.202,538.367,0.0
49727.0,STARLINK-3242,PAYLOAD,2022-05-08 14:00:01,15.08867461,0.0001852,53.2179,328.9298,48.8925,295.2704,-0.0072098,-0.00113319,0.0,0 STARLINK-3242,1 49727U 21115D   22128.58334491 -.00113319  00000-0 -72098-2 0  9999,2 49727  53.2179 328.9298 0001852  48.8925 295.2704 15.08867461 24989,6917.795999999999,95.436,540.943,538.38,0.0
49727.0,STARLINK-3242,PAYLOAD,2022-05-08 20:00:01,15.08830844,0.0001914,53.2181,327.8179,44.2637,218.602,-0.00013789,-2.481e-05,0.0,0 STARLINK-3242,1 49727U 21115D   22128.83334491 -.00002481  00000-0 -13789-3 0  9997,2 49727  53.2181 327.8179 0001914  44.2637 218.6020 15.08830844 25028,6917.908,95.438,541.097,538.4490000000002,0.0
49727.0,STARLINK-3242,PAYLOAD,2022-05-08 22:00:00,15.0881964,0.0001947,53.2182,327.4441,43.7677,311.9966,0.001629,0.00025718,0.0,0 STARLINK-3242,1 49727U 21115D   22128.91667824  .00025718  00000-0  16290-2 0  9990,2 49727  53.2182 327.4441 0001947  43.7677 311.9966 15.08819640  3608,6917.943,95.439,541.155,538.461,0.0
49727.0,STARLINK-3242,PAYLOAD,2022-05-09 14:00:01,15.08863084,0.0001730999999999,53.2179,324.45,49.2298,329.7713,-0.0011752,-0.00018955,0.0,0 STARLINK-3242,1 49727U 21115D   22129.58335648 -.00018955  00000-0 -11752-2 0  9995,2 49727  53.2179 324.4500 0001731  49.2298 329.7713 15.08863084 25138,6917.81,95.436,540.872,538.477,0.0
49727.0,STARLINK-3242,PAYLOAD,2022-05-09 22:00:00,15.08819303,0.0001887,53.2176,322.9553,43.1281,347.4314,0.0013855,0.00021819,0.0,0 STARLINK-3242,1 49727U 21115D   22129.91667824  .00021819  00000-0  13855-2 0  9993,2 49727  53.2176 322.9553 0001887  43.1281 347.4314 15.08819303  3576,6917.944,95.439,541.114,538.503,0.0
49727.0,STARLINK-3242,PAYLOAD,2022-05-10 14:00:01,15.08857134,0.0001702,53.2172,319.9612,47.878,5.8472,-0.00085568,-0.00013887,0.0,0 STARLINK-3242,1 49727U 21115D   22130.58334491 -.00013887  00000-0 -85568-3 0  9998,2 49727  53.2172 319.9612 0001702  47.8780   5.8472 15.08857134  3603,6917.828,95.436,540.87,538.516,0.0
49727.0,STARLINK-3242,PAYLOAD,2022-05-10 18:00:00,15.08862948,0.0001796,53.217,319.2141,44.0154,195.5126,-0.0036477,-0.00057912,0.0,0 STARLINK-3242,1 49727U 21115D   22130.75001157 -.00057912  00000-0 -36477-2 0  9998,2 49727  53.2170 319.2141 0001796  44.0154 195.5126 15.08862948 25312,6917.81,95.436,540.918,538.433,0.0
49727.0,STARLINK-3242,PAYLOAD,2022-05-11 22:00:00,15.08825632,0.000192,53.2167,313.9774,40.9067,59.1912,0.002494,0.00039612,0.0,0 STARLINK-3242,1 49727U 21115D   22131.91667824  .00039612  00000-0  24940-2 0  9993,2 49727  53.2167 313.9774 0001920  40.9067  59.1912 15.08825632 25483,6917.924,95.438,541.118,538.461,0.0
49727.0,STARLINK-3242,PAYLOAD,2022-05-12 14:00:01,15.08850835,0.0001907,53.2168,310.9828,48.4693,74.8163,-0.0004437,-7.345e-05,0.0,0 STARLINK-3242,1 49727U 21115D   22132.58334491 -.00007345  00000-0 -44370-3 0  9998,2 49727  53.2168 310.9828 0001907  48.4693  74.8163 15.08850835  1304,6917.847,95.437,541.0319999999998,538.393,0.0
49727.0,STARLINK-3242,PAYLOAD,2022-05-12 20:00:01,15.08840076,0.0002064,53.2167,309.8619,44.1159,357.8765,0.0010337,0.00016202,0.0,0 STARLINK-3242,1 49727U 21115D   22132.83334491  .00016202  00000-0  10337-2 0  9991,2 49727  53.2167 309.8619 0002064  44.1159 357.8765 15.08840076 25622,6917.88,95.438,541.173,538.317,0.0
49727.0,STARLINK-3242,PAYLOAD,2022-05-12 22:00:00,15.08830075,0.0002053,53.2168,309.488,42.1516,92.7447,0.0027004,0.0004294,0.0,0 STARLINK-3242,1 49727U 21115D   22132.91667824  .00042940  00000-0  27004-2 0  9996,2 49727  53.2168 309.4880 0002053  42.1516  92.7447 15.08830075  1301,6917.911,95.438,541.196,538.355,0.0
49727.0,STARLINK-3242,PAYLOAD,2022-05-13 14:00:01,15.08846299,0.0001954,53.2172,306.4934,47.4344,110.6579,-0.0023721,-0.00037849,0.0,0 STARLINK-3242,1 49727U 21115D   22133.58334491 -.00037849  00000-0 -23721-2 0  9997,2 49727  53.2172 306.4934 0001954  47.4344 110.6579 15.08846299 25744,6917.861,95.437,541.078,538.374,0.0
